{
  "type": "FeatureCollection",
  "features": [
    {
      "type": "Feature",
      "properties": {
        "norad_id": 40730,
        "name": "GPS BIIF-10 (PRN 08)",
        "group": "gps-ops",
        "lat": 47.090646425376214,
        "lon": 43.75356414313682,
        "alt_km": 20165.961151979576,
        "timestamp": "2025-12-12T09:49:08.990198+00:00",
        "meta_object_name": "GPS BIIF-10 (PRN 08)",
        "meta_object_id": "2015-033A",
        "meta_epoch": "2025-12-11T18:04:53.114592",
        "meta_mean_motion": 2.00565636,
        "meta_eccentricity": 0.01108926,
        "meta_inclination": 54.1315,
        "meta_ra_of_asc_node": 274.8134,
        "meta_arg_of_pericenter": 26.7842,
        "meta_mean_anomaly": 333.7997,
        "meta_ephemeris_type": 0,
        "meta_classification_type": "U",
        "meta_norad_cat_id": 40730,
        "meta_element_set_no": 999,
        "meta_rev_at_epoch": 7623,
        "meta_bstar": 0,
        "meta_mean_motion_dot": -7.1e-07,
        "meta_mean_motion_ddot": 0,
        "tle_line1": "1 40730U 15033A   25345.75339253 -.00000071  00000+0  00000+0 0  9999",
        "tle_line2": "2 40730  54.1315 274.8134 0110892  26.7842 333.7997  2.00565636 76236"
      },
      "geometry": {
        "type": "Point",
        "coordinates": [
          43.75356414313682,
          47.090646425376214
        ]
      }
    },
    {
      "type": "Feature",
      "properties": {
        "norad_id": 41019,
        "name": "GPS BIIF-11 (PRN 10)",
        "group": "gps-ops",
        "lat": 51.50702001207155,
        "lon": 93.28753101837675,
        "alt_km": 20453.6861079727,
        "timestamp": "2025-12-12T09:49:08.990209+00:00",
        "meta_object_name": "GPS BIIF-11 (PRN 10)",
        "meta_object_id": "2015-062A",
        "meta_epoch": "2025-12-11T07:32:26.435904",
        "meta_mean_motion": 2.00567124,
        "meta_eccentricity": 0.01107874,
        "meta_inclination": 56.8311,
        "meta_ra_of_asc_node": 38.0574,
        "meta_arg_of_pericenter": 229.9047,
        "meta_mean_anomaly": 129.1688,
        "meta_ephemeris_type": 0,
        "meta_classification_type": "U",
        "meta_norad_cat_id": 41019,
        "meta_element_set_no": 999,
        "meta_rev_at_epoch": 7406,
        "meta_bstar": 0,
        "meta_mean_motion_dot": -9.3e-07,
        "meta_mean_motion_ddot": 0,
        "tle_line1": "1 41019U 15062A   25345.31419486 -.00000093  00000+0  00000+0 0  9995",
        "tle_line2": "2 41019  56.8311  38.0574 0110787 229.9047 129.1688  2.00567124 74064"
      },
      "geometry": {
        "type": "Point",
        "coordinates": [
          93.28753101837675,
          51.50702001207155
        ]
      }
    },
    {
      "type": "Feature",
      "properties": {
        "norad_id": 41328,
        "name": "GPS BIIF-12 (PRN 32)",
        "group": "gps-ops",
        "lat": 8.977088968295938,
        "lon": 103.1163684471655,
        "alt_km": 20328.73738744031,
        "timestamp": "2025-12-12T09:49:08.990221+00:00",
        "meta_object_name": "GPS BIIF-12 (PRN 32)",
        "meta_object_id": "2016-007A",
        "meta_epoch": "2025-12-10T21:33:15.579936",
        "meta_mean_motion": 2.00560768,
        "meta_eccentricity": 0.0092092,
        "meta_inclination": 55.4051,
        "meta_ra_of_asc_node": 96.9301,
        "meta_arg_of_pericenter": 243.5329,
        "meta_mean_anomaly": 115.5097,
        "meta_ephemeris_type": 0,
        "meta_classification_type": "U",
        "meta_norad_cat_id": 41328,
        "meta_element_set_no": 999,
        "meta_rev_at_epoch": 7206,
        "meta_bstar": 0,
        "meta_mean_motion_dot": 1e-08,
        "meta_mean_motion_ddot": 0,
        "tle_line1": "1 41328U 16007A   25344.89809699  .00000001  00000+0  00000+0 0  9997",
        "tle_line2": "2 41328  55.4051  96.9301 0092092 243.5329 115.5097  2.00560768 72065"
      },
      "geometry": {
        "type": "Point",
        "coordinates": [
          103.1163684471655,
          8.977088968295938
        ]
      }
    },
    {
      "type": "Feature",
      "properties": {
        "norad_id": 43873,
        "name": "GPS BIII-1  (PRN 04)",
        "group": "gps-ops",
        "lat": -55.2788946413339,
        "lon": 1.0271838461489695,
        "alt_km": 20155.237199966665,
        "timestamp": "2025-12-12T09:49:08.990232+00:00",
        "meta_object_name": "GPS BIII-1  (PRN 04)",
        "meta_object_id": "2018-109A",
        "meta_epoch": "2025-12-11T18:46:12.593280",
        "meta_mean_motion": 2.00553575,
        "meta_eccentricity": 0.00372966,
        "meta_inclination": 55.5668,
        "meta_ra_of_asc_node": 99.5845,
        "meta_arg_of_pericenter": 194.9269,
        "meta_mean_anomaly": 337.0503,
        "meta_ephemeris_type": 0,
        "meta_classification_type": "U",
        "meta_norad_cat_id": 43873,
        "meta_element_set_no": 999,
        "meta_rev_at_epoch": 5131,
        "meta_bstar": 0,
        "meta_mean_motion_dot": 2e-08,
        "meta_mean_motion_ddot": 0,
        "tle_line1": "1 43873U 18109A   25345.78209020  .00000002  00000+0  00000+0 0  9991",
        "tle_line2": "2 43873  55.5668  99.5845 0037296 194.9269 337.0503  2.00553575 51312"
      },
      "geometry": {
        "type": "Point",
        "coordinates": [
          1.0271838461489695,
          -55.2788946413339
        ]
      }
    },
    {
      "type": "Feature",
      "properties": {
        "norad_id": 44506,
        "name": "GPS BIII-2  (PRN 18)",
        "group": "gps-ops",
        "lat": 15.353566059470845,
        "lon": 147.76762904341226,
        "alt_km": 20058.05080634465,
        "timestamp": "2025-12-12T09:49:08.990244+00:00",
        "meta_object_name": "GPS BIII-2  (PRN 18)",
        "meta_object_id": "2019-056A",
        "meta_epoch": "2025-12-11T10:12:28.532736",
        "meta_mean_motion": 2.00566237,
        "meta_eccentricity": 0.00577517,
        "meta_inclination": 55.7218,
        "meta_ra_of_asc_node": 338.6041,
        "meta_arg_of_pericenter": 198.4885,
        "meta_mean_anomaly": 332.8185,
        "meta_ephemeris_type": 0,
        "meta_classification_type": "U",
        "meta_norad_cat_id": 44506,
        "meta_element_set_no": 999,
        "meta_rev_at_epoch": 4630,
        "meta_bstar": 0,
        "meta_mean_motion_dot": -8.7e-07,
        "meta_mean_motion_ddot": 0,
        "tle_line1": "1 44506U 19056A   25345.42533024 -.00000087  00000+0  00000+0 0  9996",
        "tle_line2": "2 44506  55.7218 338.6041 0057751 198.4885 332.8185  2.00566237 46306"
      },
      "geometry": {
        "type": "Point",
        "coordinates": [
          147.76762904341226,
          15.353566059470845
        ]
      }
    },
    {
      "type": "Feature",
      "properties": {
        "norad_id": 45854,
        "name": "GPS BIII-3  (PRN 23)",
        "group": "gps-ops",
        "lat": 53.6852737953434,
        "lon": 152.20871328901075,
        "alt_km": 20198.77587358706,
        "timestamp": "2025-12-12T09:49:08.990255+00:00",
        "meta_object_name": "GPS BIII-3  (PRN 23)",
        "meta_object_id": "2020-041A",
        "meta_epoch": "2025-12-11T05:23:02.925024",
        "meta_mean_motion": 2.00561914,
        "meta_eccentricity": 0.006046,
        "meta_inclination": 56.5461,
        "meta_ra_of_asc_node": 36.2442,
        "meta_arg_of_pericenter": 203.3747,
        "meta_mean_anomaly": 126.9066,
        "meta_ephemeris_type": 0,
        "meta_classification_type": "U",
        "meta_norad_cat_id": 45854,
        "meta_element_set_no": 999,
        "meta_rev_at_epoch": 4026,
        "meta_bstar": 0,
        "meta_mean_motion_dot": -9.4e-07,
        "meta_mean_motion_ddot": 0,
        "tle_line1": "1 45854U 20041A   25345.22433941 -.00000094  00000+0  00000+0 0  9992",
        "tle_line2": "2 45854  56.5461  36.2442 0060460 203.3747 126.9066  2.00561914 40268"
      },
      "geometry": {
        "type": "Point",
        "coordinates": [
          152.20871328901075,
          53.6852737953434
        ]
      }
    },
    {
      "type": "Feature",
      "properties": {
        "norad_id": 46826,
        "name": "GPS BIII-4  (PRN 14)",
        "group": "gps-ops",
        "lat": 51.75553361323734,
        "lon": -74.52382192601542,
        "alt_km": 20279.372624594853,
        "timestamp": "2025-12-12T09:49:08.990267+00:00",
        "meta_object_name": "GPS BIII-4  (PRN 14)",
        "meta_object_id": "2020-078A",
        "meta_epoch": "2025-12-11T12:08:25.039104",
        "meta_mean_motion": 2.0056681,
        "meta_eccentricity": 0.00646308,
        "meta_inclination": 54.0154,
        "meta_ra_of_asc_node": 218.391,
        "meta_arg_of_pericenter": 203.3565,
        "meta_mean_anomaly": 301.1266,
        "meta_ephemeris_type": 0,
        "meta_classification_type": "U",
        "meta_norad_cat_id": 46826,
        "meta_element_set_no": 999,
        "meta_rev_at_epoch": 3774,
        "meta_bstar": 0,
        "meta_mean_motion_dot": 1e-07,
        "meta_mean_motion_ddot": 0,
        "tle_line1": "1 46826U 20078A   25345.50584536  .00000010  00000+0  00000+0 0  9997",
        "tle_line2": "2 46826  54.0154 218.3910 0064630 203.3565 301.1266  2.00566810 37742"
      },
      "geometry": {
        "type": "Point",
        "coordinates": [
          -74.52382192601542,
          51.75553361323734
        ]
      }
    }
  ]
}